<?xml version='1.0' encoding='UTF-8' standalone='yes' ?>
<gpx xmlns="http://www.topografix.com/GPX/1/1" xmlns:geotracker="http://ilyabogdanovich.com/gpx/extensions/geotracker" xmlns:xsi="http://www.w3.org/2001/XMLSchema-instance" xsi:schemaLocation="http://www.topografix.com/GPX/1/1 http://www.topografix.com/GPX/1/1/gpx.xsd" version="1.1" creator="Recorded in Geo Tracker for Android from Ilya Bogdanovich">
  <metadata>
    <name>20 Aug 2026 13:01:32</name>
    <author>
      <name>Recorded in Geo Tracker for Android from Ilya Bogdanovich</name>
      <link href="https://play.google.com/store/apps/details?id=com.ilyabogdanovich.geotracker" />
    </author>
    <link href="https://play.google.com/store/apps/details?id=com.ilyabogdanovich.geotracker" />
    <time>2026-08-20T11:01:32Z</time>
  </metadata>
  <trk>
    <name>20 Aug 2026 13:01:32</name>
    <src>Recorded in Geo Tracker for Android from Ilya Bogdanovich</src>
    <link href="https://play.google.com/store/apps/details?id=com.ilyabogdanovich.geotracker" />
    <extensions>
      <geotracker:meta>
        <geotracker:length>2015.22</geotracker:length>
        <geotracker:duration>1618626</geotracker:duration>
        <geotracker:creationtime>2026-08-20T11:01:32Z</geotracker:creationtime>
        <geotracker:activity>0</geotracker:activity>
      </geotracker:meta>
    </extensions>
    <trkseg>
      <trkpt lat="59.66621609" lon="10.77703041">
        <ele>137</ele>
        <time>2026-08-20T11:01:38Z</time>
        <extensions>
          <geotracker:meta c="5.8" s="1.42" />
        </extensions>
      </trkpt>
      <trkpt lat="59.66629278" lon="10.77690133">
        <ele>138</ele>
        <time>2026-08-20T11:01:45Z</time>
        <extensions>
          <geotracker:meta c="5.77" s="1.59" />
        </extensions>
      </trkpt>
      <trkpt lat="59.66636529" lon="10.7767922">
        <ele>139</ele>
        <time>2026-08-20T11:01:52Z</time>
        <extensions>
          <geotracker:meta c="5.78" s="0.97" />
        </extensions>
      </trkpt>
      <trkpt lat="59.66646851" lon="10.77675037">
        <ele>137</ele>
        <time>2026-08-20T11:02:25Z</time>
        <extensions>
          <geotracker:meta c="6.02" s="1.71" />
        </extensions>
      </trkpt>
      <trkpt lat="59.66655815" lon="10.77667527">
        <ele>137</ele>
        <time>2026-08-20T11:02:30Z</time>
        <extensions>
          <geotracker:meta c="5.64" s="1.64" />
        </extensions>
      </trkpt>
      <trkpt lat="59.66661402" lon="10.77652146">
        <ele>130</ele>
        <time>2026-08-20T11:02:37Z</time>
        <extensions>
          <geotracker:meta c="6.06" s="1.44" />
        </extensions>
      </trkpt>
      <trkpt lat="59.6666794" lon="10.77639456">
        <ele>127</ele>
        <time>2026-08-20T11:02:41Z</time>
        <extensions>
          <geotracker:meta c="5.63" s="2.28" />
        </extensions>
      </trkpt>
      <trkpt lat="59.66675978" lon="10.77623849">
        <ele>127</ele>
        <time>2026-08-20T11:02:45Z</time>
        <extensions>
          <geotracker:meta c="5.86" s="2.66" />
        </extensions>
      </trkpt>
      <trkpt lat="59.66685022" lon="10.77617277">
        <ele>130</ele>
        <time>2026-08-20T11:02:49Z</time>
        <extensions>
          <geotracker:meta c="6.16" s="2.7" />
        </extensions>
      </trkpt>
      <trkpt lat="59.66695768" lon="10.77617093">
        <ele>132</ele>
        <time>2026-08-20T11:02:53Z</time>
        <extensions>
          <geotracker:meta c="6.22" s="2.62" />
        </extensions>
      </trkpt>
      <trkpt lat="59.66705361" lon="10.77614553">
        <ele>133</ele>
        <time>2026-08-20T11:02:58Z</time>
        <extensions>
          <geotracker:meta c="0.02" s="1.61" />
        </extensions>
      </trkpt>
      <trkpt lat="59.66714858" lon="10.77608233">
        <ele>134</ele>
        <time>2026-08-20T11:03:06Z</time>
        <extensions>
          <geotracker:meta c="5.83" s="0.92" />
        </extensions>
      </trkpt>
      <trkpt lat="59.66722913" lon="10.77599801">
        <ele>135</ele>
        <time>2026-08-20T11:03:15Z</time>
        <extensions>
          <geotracker:meta c="6.23" s="1.13" />
        </extensions>
      </trkpt>
      <trkpt lat="59.66732346" lon="10.77592199">
        <ele>136</ele>
        <time>2026-08-20T11:03:22Z</time>
        <extensions>
          <geotracker:meta c="5.93" s="1.57" />
        </extensions>
      </trkpt>
      <trkpt lat="59.66741613" lon="10.77586298">
        <ele>138</ele>
        <time>2026-08-20T11:03:30Z</time>
        <extensions>
          <geotracker:meta c="6.12" s="0.64" />
        </extensions>
      </trkpt>
      <trkpt lat="59.66746801" lon="10.77571336">
        <ele>139</ele>
        <time>2026-08-20T11:03:39Z</time>
        <extensions>
          <geotracker:meta c="5.15" s="1.17" />
        </extensions>
      </trkpt>
      <trkpt lat="59.66751348" lon="10.77553642">
        <ele>140</ele>
        <time>2026-08-20T11:03:48Z</time>
        <extensions>
          <geotracker:meta c="5.12" s="1.29" />
        </extensions>
      </trkpt>
      <trkpt lat="59.66754253" lon="10.77536786">
        <ele>140</ele>
        <time>2026-08-20T11:03:56Z</time>
        <extensions>
          <geotracker:meta c="4.87" s="1.36" />
        </extensions>
      </trkpt>
      <trkpt lat="59.66754965" lon="10.7751729">
        <ele>141</ele>
        <time>2026-08-20T11:04:03Z</time>
        <extensions>
          <geotracker:meta c="4.82" s="1.28" />
        </extensions>
      </trkpt>
      <trkpt lat="59.66756046" lon="10.77499411">
        <ele>141</ele>
        <time>2026-08-20T11:04:10Z</time>
        <extensions>
          <geotracker:meta c="4.84" s="1.37" />
        </extensions>
      </trkpt>
      <trkpt lat="59.66756386" lon="10.77479236">
        <ele>141</ele>
        <time>2026-08-20T11:04:17Z</time>
        <extensions>
          <geotracker:meta c="4.79" s="1.34" />
        </extensions>
      </trkpt>
      <trkpt lat="59.66756583" lon="10.77461148">
        <ele>141</ele>
        <time>2026-08-20T11:04:25Z</time>
        <extensions>
          <geotracker:meta c="4.98" s="1.15" />
        </extensions>
      </trkpt>
      <trkpt lat="59.66756901" lon="10.77442917">
        <ele>140</ele>
        <time>2026-08-20T11:04:33Z</time>
        <extensions>
          <geotracker:meta c="4.57" s="1.52" />
        </extensions>
      </trkpt>
      <trkpt lat="59.66757027" lon="10.7742503">
        <ele>140</ele>
        <time>2026-08-20T11:04:39Z</time>
        <extensions>
          <geotracker:meta c="4.95" s="1.27" />
        </extensions>
      </trkpt>
      <trkpt lat="59.6675758" lon="10.77406607">
        <ele>139</ele>
        <time>2026-08-20T11:04:46Z</time>
        <extensions>
          <geotracker:meta c="4.86" s="1.39" />
        </extensions>
      </trkpt>
      <trkpt lat="59.66758041" lon="10.77387831">
        <ele>137</ele>
        <time>2026-08-20T11:04:54Z</time>
        <extensions>
          <geotracker:meta c="4.69" s="1.23" />
        </extensions>
      </trkpt>
      <trkpt lat="59.66757249" lon="10.77369567">
        <ele>138</ele>
        <time>2026-08-20T11:05:00Z</time>
        <extensions>
          <geotracker:meta c="4.6" s="1.42" />
        </extensions>
      </trkpt>
      <trkpt lat="59.66755464" lon="10.77350766">
        <ele>138</ele>
        <time>2026-08-20T11:05:06Z</time>
        <extensions>
          <geotracker:meta c="4.54" s="1.42" />
        </extensions>
      </trkpt>
      <trkpt lat="59.66755518" lon="10.77330918">
        <ele>140</ele>
        <time>2026-08-20T11:05:13Z</time>
        <extensions>
          <geotracker:meta c="4.71" s="1.39" />
        </extensions>
      </trkpt>
      <trkpt lat="59.66754994" lon="10.77313014">
        <ele>140</ele>
        <time>2026-08-20T11:05:19Z</time>
        <extensions>
          <geotracker:meta c="4.72" s="1.26" />
        </extensions>
      </trkpt>
      <trkpt lat="59.66755372" lon="10.77294633">
        <ele>140</ele>
        <time>2026-08-20T11:05:26Z</time>
        <extensions>
          <geotracker:meta c="4.72" s="1.33" />
        </extensions>
      </trkpt>
      <trkpt lat="59.66755225" lon="10.77275254">
        <ele>140</ele>
        <time>2026-08-20T11:05:34Z</time>
        <extensions>
          <geotracker:meta c="4.68" s="1.34" />
        </extensions>
      </trkpt>
      <trkpt lat="59.66757739" lon="10.77257962">
        <ele>140</ele>
        <time>2026-08-20T11:05:43Z</time>
        <extensions>
          <geotracker:meta c="5.7" s="0.19" />
        </extensions>
      </trkpt>
      <trkpt lat="59.66766876" lon="10.77250033">
        <ele>140</ele>
        <time>2026-08-20T11:05:51Z</time>
        <extensions>
          <geotracker:meta c="5.9" s="1.57" />
        </extensions>
      </trkpt>
      <trkpt lat="59.66775869" lon="10.7724383">
        <ele>140</ele>
        <time>2026-08-20T11:05:58Z</time>
        <extensions>
          <geotracker:meta c="5.96" s="1.55" />
        </extensions>
      </trkpt>
      <trkpt lat="59.6678537" lon="10.77236437">
        <ele>142</ele>
        <time>2026-08-20T11:06:05Z</time>
        <extensions>
          <geotracker:meta c="5.95" s="1.46" />
        </extensions>
      </trkpt>
      <trkpt lat="59.66794129" lon="10.77231081">
        <ele>142</ele>
        <time>2026-08-20T11:06:12Z</time>
        <extensions>
          <geotracker:meta c="5.91" s="1.58" />
        </extensions>
      </trkpt>
      <trkpt lat="59.66803685" lon="10.77223512">
        <ele>143</ele>
        <time>2026-08-20T11:06:19Z</time>
        <extensions>
          <geotracker:meta c="5.87" s="1.64" />
        </extensions>
      </trkpt>
      <trkpt lat="59.66813144" lon="10.77215315">
        <ele>144</ele>
        <time>2026-08-20T11:06:26Z</time>
        <extensions>
          <geotracker:meta c="6" s="1.56" />
        </extensions>
      </trkpt>
      <trkpt lat="59.6682306" lon="10.77209892">
        <ele>145</ele>
        <time>2026-08-20T11:06:33Z</time>
        <extensions>
          <geotracker:meta c="6.12" s="1.52" />
        </extensions>
      </trkpt>
      <trkpt lat="59.66832665" lon="10.7720529">
        <ele>145</ele>
        <time>2026-08-20T11:06:41Z</time>
        <extensions>
          <geotracker:meta c="5.91" s="1.25" />
        </extensions>
      </trkpt>
      <trkpt lat="59.66840708" lon="10.77196129">
        <ele>146</ele>
        <time>2026-08-20T11:06:48Z</time>
        <extensions>
          <geotracker:meta c="5.88" s="1.36" />
        </extensions>
      </trkpt>
      <trkpt lat="59.66848733" lon="10.77187076">
        <ele>145</ele>
        <time>2026-08-20T11:06:55Z</time>
        <extensions>
          <geotracker:meta c="5.73" s="1.54" />
        </extensions>
      </trkpt>
      <trkpt lat="59.66857337" lon="10.77176339">
        <ele>145</ele>
        <time>2026-08-20T11:07:04Z</time>
        <extensions>
          <geotracker:meta c="5.86" s="1.35" />
        </extensions>
      </trkpt>
      <trkpt lat="59.66865154" lon="10.77166968">
        <ele>144</ele>
        <time>2026-08-20T11:07:10Z</time>
        <extensions>
          <geotracker:meta c="5.77" s="1.52" />
        </extensions>
      </trkpt>
      <trkpt lat="59.66872588" lon="10.77156566">
        <ele>144</ele>
        <time>2026-08-20T11:07:16Z</time>
        <extensions>
          <geotracker:meta c="5.78" s="1.49" />
        </extensions>
      </trkpt>
      <trkpt lat="59.66880186" lon="10.77147011">
        <ele>145</ele>
        <time>2026-08-20T11:07:23Z</time>
        <extensions>
          <geotracker:meta c="5.87" s="1.61" />
        </extensions>
      </trkpt>
      <trkpt lat="59.66887164" lon="10.77134564">
        <ele>145</ele>
        <time>2026-08-20T11:07:30Z</time>
        <extensions>
          <geotracker:meta c="5.64" s="1.2" />
        </extensions>
      </trkpt>
      <trkpt lat="59.66883003" lon="10.77116115">
        <ele>144</ele>
        <time>2026-08-20T11:07:39Z</time>
        <extensions>
          <geotracker:meta c="4.21" s="1.19" />
        </extensions>
      </trkpt>
      <trkpt lat="59.6687947" lon="10.77098496">
        <ele>143</ele>
        <time>2026-08-20T11:07:47Z</time>
        <extensions>
          <geotracker:meta c="4.46" s="1.37" />
        </extensions>
      </trkpt>
      <trkpt lat="59.66875962" lon="10.77080752">
        <ele>143</ele>
        <time>2026-08-20T11:07:55Z</time>
        <extensions>
          <geotracker:meta c="4.36" s="1.29" />
        </extensions>
      </trkpt>
      <trkpt lat="59.66873732" lon="10.77062655">
        <ele>142</ele>
        <time>2026-08-20T11:08:02Z</time>
        <extensions>
          <geotracker:meta c="4.5" s="1.28" />
        </extensions>
      </trkpt>
      <trkpt lat="59.66870841" lon="10.77044643">
        <ele>142</ele>
        <time>2026-08-20T11:08:09Z</time>
        <extensions>
          <geotracker:meta c="4.32" s="1.44" />
        </extensions>
      </trkpt>
      <trkpt lat="59.66867228" lon="10.77026881">
        <ele>142</ele>
        <time>2026-08-20T11:08:16Z</time>
        <extensions>
          <geotracker:meta c="4.44" s="1.5" />
        </extensions>
      </trkpt>
      <trkpt lat="59.66864353" lon="10.7701">
        <ele>141</ele>
        <time>2026-08-20T11:08:22Z</time>
        <extensions>
          <geotracker:meta c="4.41" s="1.41" />
        </extensions>
      </trkpt>
      <trkpt lat="59.66860812" lon="10.76991007">
        <ele>142</ele>
        <time>2026-08-20T11:08:30Z</time>
        <extensions>
          <geotracker:meta c="4.32" s="1.42" />
        </extensions>
      </trkpt>
      <trkpt lat="59.6685424" lon="10.7697576">
        <ele>142</ele>
        <time>2026-08-20T11:08:37Z</time>
        <extensions>
          <geotracker:meta c="4.06" s="1.49" />
        </extensions>
      </trkpt>
      <trkpt lat="59.66848775" lon="10.76960673">
        <ele>142</ele>
        <time>2026-08-20T11:08:44Z</time>
        <extensions>
          <geotracker:meta c="4.19" s="1.44" />
        </extensions>
      </trkpt>
      <trkpt lat="59.6684261" lon="10.76947069">
        <ele>141</ele>
        <time>2026-08-20T11:08:50Z</time>
        <extensions>
          <geotracker:meta c="4.06" s="1.7" />
        </extensions>
      </trkpt>
      <trkpt lat="59.66835951" lon="10.76931437">
        <ele>141</ele>
        <time>2026-08-20T11:08:57Z</time>
        <extensions>
          <geotracker:meta c="4.04" s="1.66" />
        </extensions>
      </trkpt>
      <trkpt lat="59.66830302" lon="10.76916701">
        <ele>140</ele>
        <time>2026-08-20T11:09:04Z</time>
        <extensions>
          <geotracker:meta c="4.04" s="1.43" />
        </extensions>
      </trkpt>
      <trkpt lat="59.668236" lon="10.76902603">
        <ele>138</ele>
        <time>2026-08-20T11:09:11Z</time>
        <extensions>
          <geotracker:meta c="4.04" s="1.11" />
        </extensions>
      </trkpt>
      <trkpt lat="59.66817431" lon="10.76888278">
        <ele>137</ele>
        <time>2026-08-20T11:09:19Z</time>
        <extensions>
          <geotracker:meta c="3.98" s="1.38" />
        </extensions>
      </trkpt>
      <trkpt lat="59.66810545" lon="10.76874289">
        <ele>136</ele>
        <time>2026-08-20T11:09:26Z</time>
        <extensions>
          <geotracker:meta c="3.95" s="1.43" />
        </extensions>
      </trkpt>
      <trkpt lat="59.66803978" lon="10.76861305">
        <ele>134</ele>
        <time>2026-08-20T11:09:34Z</time>
        <extensions>
          <geotracker:meta c="3.96" s="1.09" />
        </extensions>
      </trkpt>
      <trkpt lat="59.66797281" lon="10.76847785">
        <ele>133</ele>
        <time>2026-08-20T11:09:42Z</time>
        <extensions>
          <geotracker:meta c="3.9" s="1" />
        </extensions>
      </trkpt>
      <trkpt lat="59.66791104" lon="10.76834776">
        <ele>131</ele>
        <time>2026-08-20T11:09:49Z</time>
        <extensions>
          <geotracker:meta c="3.92" s="1.3" />
        </extensions>
      </trkpt>
      <trkpt lat="59.66784088" lon="10.76822606">
        <ele>131</ele>
        <time>2026-08-20T11:09:56Z</time>
        <extensions>
          <geotracker:meta c="3.79" s="1.26" />
        </extensions>
      </trkpt>
      <trkpt lat="59.66776305" lon="10.76811383">
        <ele>129</ele>
        <time>2026-08-20T11:10:03Z</time>
        <extensions>
          <geotracker:meta c="3.85" s="0.8" />
        </extensions>
      </trkpt>
      <trkpt lat="59.66768787" lon="10.76799145">
        <ele>128</ele>
        <time>2026-08-20T11:10:11Z</time>
        <extensions>
          <geotracker:meta c="4.03" s="1.39" />
        </extensions>
      </trkpt>
      <trkpt lat="59.66762253" lon="10.76786698">
        <ele>126</ele>
        <time>2026-08-20T11:10:17Z</time>
        <extensions>
          <geotracker:meta c="3.85" s="1.64" />
        </extensions>
      </trkpt>
      <trkpt lat="59.66755912" lon="10.76773505">
        <ele>125</ele>
        <time>2026-08-20T11:10:23Z</time>
        <extensions>
          <geotracker:meta c="3.84" s="1.39" />
        </extensions>
      </trkpt>
      <trkpt lat="59.66749609" lon="10.76758476">
        <ele>125</ele>
        <time>2026-08-20T11:10:31Z</time>
        <extensions>
          <geotracker:meta c="4.08" s="1.15" />
        </extensions>
      </trkpt>
      <trkpt lat="59.66742665" lon="10.76746473">
        <ele>124</ele>
        <time>2026-08-20T11:10:38Z</time>
        <extensions>
          <geotracker:meta c="3.9" s="1.24" />
        </extensions>
      </trkpt>
      <trkpt lat="59.66735544" lon="10.76735015">
        <ele>124</ele>
        <time>2026-08-20T11:10:45Z</time>
        <extensions>
          <geotracker:meta c="3.95" s="1.16" />
        </extensions>
      </trkpt>
      <trkpt lat="59.66727552" lon="10.76721822">
        <ele>124</ele>
        <time>2026-08-20T11:10:53Z</time>
        <extensions>
          <geotracker:meta c="3.85" s="1.28" />
        </extensions>
      </trkpt>
      <trkpt lat="59.66719807" lon="10.76711244">
        <ele>124</ele>
        <time>2026-08-20T11:11:00Z</time>
        <extensions>
          <geotracker:meta c="3.82" s="1.43" />
        </extensions>
      </trkpt>
      <trkpt lat="59.66713252" lon="10.76696123">
        <ele>123</ele>
        <time>2026-08-20T11:11:08Z</time>
        <extensions>
          <geotracker:meta c="4.19" s="0.98" />
        </extensions>
      </trkpt>
      <trkpt lat="59.66712071" lon="10.76678035">
        <ele>124</ele>
        <time>2026-08-20T11:11:17Z</time>
        <extensions>
          <geotracker:meta c="4.57" s="1.17" />
        </extensions>
      </trkpt>
      <trkpt lat="59.66714258" lon="10.76659134">
        <ele>122</ele>
        <time>2026-08-20T11:11:30Z</time>
        <extensions>
          <geotracker:meta c="4.97" s="0.77" />
        </extensions>
      </trkpt>
      <trkpt lat="59.66714946" lon="10.76640165">
        <ele>120</ele>
        <time>2026-08-20T11:11:40Z</time>
        <extensions>
          <geotracker:meta c="4.42" s="0.95" />
        </extensions>
      </trkpt>
      <trkpt lat="59.66711601" lon="10.76623519">
        <ele>121</ele>
        <time>2026-08-20T11:11:48Z</time>
        <extensions>
          <geotracker:meta c="4.32" s="1.06" />
        </extensions>
      </trkpt>
      <trkpt lat="59.66708135" lon="10.76607049">
        <ele>120</ele>
        <time>2026-08-20T11:11:55Z</time>
        <extensions>
          <geotracker:meta c="4.23" s="1.26" />
        </extensions>
      </trkpt>
      <trkpt lat="59.66703253" lon="10.76590662">
        <ele>120</ele>
        <time>2026-08-20T11:12:03Z</time>
        <extensions>
          <geotracker:meta c="4.25" s="0.79" />
        </extensions>
      </trkpt>
      <trkpt lat="59.6670257" lon="10.76572825">
        <ele>119</ele>
        <time>2026-08-20T11:12:26Z</time>
        <extensions>
          <geotracker:meta c="5.12" s="0.83" />
        </extensions>
      </trkpt>
      <trkpt lat="59.66705135" lon="10.76555802">
        <ele>119</ele>
        <time>2026-08-20T11:12:36Z</time>
        <extensions>
          <geotracker:meta c="4.85" s="1.56" />
        </extensions>
      </trkpt>
      <trkpt lat="59.66706635" lon="10.7653778">
        <ele>118</ele>
        <time>2026-08-20T11:12:43Z</time>
        <extensions>
          <geotracker:meta c="4.76" s="1.17" />
        </extensions>
      </trkpt>
      <trkpt lat="59.66704812" lon="10.76520128">
        <ele>118</ele>
        <time>2026-08-20T11:12:50Z</time>
        <extensions>
          <geotracker:meta c="4.5" s="1.39" />
        </extensions>
      </trkpt>
      <trkpt lat="59.66705386" lon="10.76499668">
        <ele>118</ele>
        <time>2026-08-20T11:12:58Z</time>
        <extensions>
          <geotracker:meta c="4.88" s="1.46" />
        </extensions>
      </trkpt>
      <trkpt lat="59.66704602" lon="10.76479794">
        <ele>117</ele>
        <time>2026-08-20T11:13:06Z</time>
        <extensions>
          <geotracker:meta c="4.64" s="1.25" />
        </extensions>
      </trkpt>
      <trkpt lat="59.66704242" lon="10.76460332">
        <ele>117</ele>
        <time>2026-08-20T11:13:14Z</time>
        <extensions>
          <geotracker:meta c="4.74" s="1.36" />
        </extensions>
      </trkpt>
      <trkpt lat="59.66703873" lon="10.76440802">
        <ele>117</ele>
        <time>2026-08-20T11:13:22Z</time>
        <extensions>
          <geotracker:meta c="4.76" s="1.31" />
        </extensions>
      </trkpt>
      <trkpt lat="59.66703534" lon="10.76422211">
        <ele>117</ele>
        <time>2026-08-20T11:13:31Z</time>
        <extensions>
          <geotracker:meta c="4.5" s="0.81" />
        </extensions>
      </trkpt>
      <trkpt lat="59.66702021" lon="10.76403963">
        <ele>119</ele>
        <time>2026-08-20T11:13:42Z</time>
        <extensions>
          <geotracker:meta c="4.74" s="1.01" />
        </extensions>
      </trkpt>
      <trkpt lat="59.66693094" lon="10.76408716">
        <ele>122</ele>
        <time>2026-08-20T11:14:02Z</time>
        <extensions>
          <geotracker:meta c="2.77" s="1.37" />
        </extensions>
      </trkpt>
      <trkpt lat="59.66683979" lon="10.76412463">
        <ele>123</ele>
        <time>2026-08-20T11:14:10Z</time>
        <extensions>
          <geotracker:meta c="3.32" s="0.63" />
        </extensions>
      </trkpt>
      <trkpt lat="59.66674113" lon="10.76413745">
        <ele>122</ele>
        <time>2026-08-20T11:14:24Z</time>
        <extensions>
          <geotracker:meta c="3.21" s="1.12" />
        </extensions>
      </trkpt>
      <trkpt lat="59.66664872" lon="10.764174">
        <ele>121</ele>
        <time>2026-08-20T11:14:32Z</time>
        <extensions>
          <geotracker:meta c="3.05" s="0.77" />
        </extensions>
      </trkpt>
      <trkpt lat="59.66655472" lon="10.76424256">
        <ele>121</ele>
        <time>2026-08-20T11:14:40Z</time>
        <extensions>
          <geotracker:meta c="2.9" s="1.25" />
        </extensions>
      </trkpt>
      <trkpt lat="59.66646968" lon="10.76433996">
        <ele>120</ele>
        <time>2026-08-20T11:14:47Z</time>
        <extensions>
          <geotracker:meta c="2.7" s="1.16" />
        </extensions>
      </trkpt>
      <trkpt lat="59.66639274" lon="10.76443308">
        <ele>121</ele>
        <time>2026-08-20T11:14:54Z</time>
        <extensions>
          <geotracker:meta c="2.63" s="1.28" />
        </extensions>
      </trkpt>
      <trkpt lat="59.66630884" lon="10.76452067">
        <ele>121</ele>
        <time>2026-08-20T11:15:01Z</time>
        <extensions>
          <geotracker:meta c="2.79" s="1.1" />
        </extensions>
      </trkpt>
      <trkpt lat="59.66630552" lon="10.76470532">
        <ele>122</ele>
        <time>2026-08-20T11:15:29Z</time>
        <extensions>
          <geotracker:meta c="1.39" s="1.45" />
        </extensions>
      </trkpt>
      <trkpt lat="59.66633532" lon="10.76488973">
        <ele>124</ele>
        <time>2026-08-20T11:15:36Z</time>
        <extensions>
          <geotracker:meta c="1.21" s="1.68" />
        </extensions>
      </trkpt>
      <trkpt lat="59.6663554" lon="10.76506876">
        <ele>124</ele>
        <time>2026-08-20T11:15:44Z</time>
        <extensions>
          <geotracker:meta c="1.41" s="1.26" />
        </extensions>
      </trkpt>
      <trkpt lat="59.66636068" lon="10.76525199">
        <ele>124</ele>
        <time>2026-08-20T11:15:52Z</time>
        <extensions>
          <geotracker:meta c="1.62" s="1.48" />
        </extensions>
      </trkpt>
      <trkpt lat="59.66637103" lon="10.76545106">
        <ele>122</ele>
        <time>2026-08-20T11:16:00Z</time>
        <extensions>
          <geotracker:meta c="1.24" s="1.4" />
        </extensions>
      </trkpt>
      <trkpt lat="59.66640581" lon="10.76563412">
        <ele>123</ele>
        <time>2026-08-20T11:16:08Z</time>
        <extensions>
          <geotracker:meta c="1.25" s="1.42" />
        </extensions>
      </trkpt>
      <trkpt lat="59.66641918" lon="10.76582397">
        <ele>122</ele>
        <time>2026-08-20T11:16:18Z</time>
        <extensions>
          <geotracker:meta c="1.47" s="0.76" />
        </extensions>
      </trkpt>
      <trkpt lat="59.66646755" lon="10.76597652">
        <ele>123</ele>
        <time>2026-08-20T11:16:26Z</time>
        <extensions>
          <geotracker:meta c="1.03" s="1.44" />
        </extensions>
      </trkpt>
      <trkpt lat="59.66650371" lon="10.7661429">
        <ele>123</ele>
        <time>2026-08-20T11:16:33Z</time>
        <extensions>
          <geotracker:meta c="1.1" s="1.49" />
        </extensions>
      </trkpt>
      <trkpt lat="59.66653749" lon="10.76631038">
        <ele>124</ele>
        <time>2026-08-20T11:16:40Z</time>
        <extensions>
          <geotracker:meta c="1.22" s="1.28" />
        </extensions>
      </trkpt>
      <trkpt lat="59.66653452" lon="10.76650383">
        <ele>124</ele>
        <time>2026-08-20T11:17:08Z</time>
        <extensions>
          <geotracker:meta c="2.33" s="1.41" />
        </extensions>
      </trkpt>
      <trkpt lat="59.66647777" lon="10.76665227">
        <ele>123</ele>
        <time>2026-08-20T11:17:18Z</time>
        <extensions>
          <geotracker:meta c="2.41" s="1.13" />
        </extensions>
      </trkpt>
      <trkpt lat="59.66642731" lon="10.76680901">
        <ele>123</ele>
        <time>2026-08-20T11:17:26Z</time>
        <extensions>
          <geotracker:meta c="1.97" s="1.41" />
        </extensions>
      </trkpt>
      <trkpt lat="59.66643691" lon="10.76699241">
        <ele>124</ele>
        <time>2026-08-20T11:17:33Z</time>
        <extensions>
          <geotracker:meta c="1.45" s="1.22" />
        </extensions>
      </trkpt>
      <trkpt lat="59.66647589" lon="10.7671753">
        <ele>124</ele>
        <time>2026-08-20T11:17:41Z</time>
        <extensions>
          <geotracker:meta c="1.09" s="1.38" />
        </extensions>
      </trkpt>
      <trkpt lat="59.66652479" lon="10.76734294">
        <ele>125</ele>
        <time>2026-08-20T11:17:48Z</time>
        <extensions>
          <geotracker:meta c="1.05" s="1.2" />
        </extensions>
      </trkpt>
      <trkpt lat="59.66657249" lon="10.76752215">
        <ele>127</ele>
        <time>2026-08-20T11:18:03Z</time>
        <extensions>
          <geotracker:meta c="1.24" s="1.35" />
        </extensions>
      </trkpt>
      <trkpt lat="59.66660811" lon="10.76769842">
        <ele>127</ele>
        <time>2026-08-20T11:18:11Z</time>
        <extensions>
          <geotracker:meta c="1.37" s="1.16" />
        </extensions>
      </trkpt>
      <trkpt lat="59.66662202" lon="10.76788693">
        <ele>127</ele>
        <time>2026-08-20T11:18:19Z</time>
        <extensions>
          <geotracker:meta c="1.56" s="1.28" />
        </extensions>
      </trkpt>
      <trkpt lat="59.66663225" lon="10.76806697">
        <ele>128</ele>
        <time>2026-08-20T11:18:27Z</time>
        <extensions>
          <geotracker:meta c="1.44" s="1.08" />
        </extensions>
      </trkpt>
      <trkpt lat="59.66665455" lon="10.76825498">
        <ele>127</ele>
        <time>2026-08-20T11:18:37Z</time>
        <extensions>
          <geotracker:meta c="1.07" s="1.24" />
        </extensions>
      </trkpt>
      <trkpt lat="59.66668774" lon="10.76843284">
        <ele>127</ele>
        <time>2026-08-20T11:18:47Z</time>
        <extensions>
          <geotracker:meta c="1.32" s="1.29" />
        </extensions>
      </trkpt>
      <trkpt lat="59.66671477" lon="10.76862873">
        <ele>127</ele>
        <time>2026-08-20T11:18:56Z</time>
        <extensions>
          <geotracker:meta c="1.29" s="1.35" />
        </extensions>
      </trkpt>
      <trkpt lat="59.66674155" lon="10.76880852">
        <ele>128</ele>
        <time>2026-08-20T11:19:03Z</time>
        <extensions>
          <geotracker:meta c="1.3" s="1.31" />
        </extensions>
      </trkpt>
      <trkpt lat="59.66675764" lon="10.7690039">
        <ele>128</ele>
        <time>2026-08-20T11:19:11Z</time>
        <extensions>
          <geotracker:meta c="1.54" s="1.28" />
        </extensions>
      </trkpt>
      <trkpt lat="59.66677122" lon="10.76918646">
        <ele>127</ele>
        <time>2026-08-20T11:19:19Z</time>
        <extensions>
          <geotracker:meta c="1.39" s="1.37" />
        </extensions>
      </trkpt>
      <trkpt lat="59.66679042" lon="10.76938318">
        <ele>127</ele>
        <time>2026-08-20T11:19:27Z</time>
        <extensions>
          <geotracker:meta c="1.41" s="1.38" />
        </extensions>
      </trkpt>
      <trkpt lat="59.66681519" lon="10.76955643">
        <ele>127</ele>
        <time>2026-08-20T11:19:34Z</time>
        <extensions>
          <geotracker:meta c="1.33" s="1.44" />
        </extensions>
      </trkpt>
      <trkpt lat="59.66683174" lon="10.76975349">
        <ele>127</ele>
        <time>2026-08-20T11:19:42Z</time>
        <extensions>
          <geotracker:meta c="1.36" s="1.28" />
        </extensions>
      </trkpt>
      <trkpt lat="59.66685668" lon="10.76994443">
        <ele>128</ele>
        <time>2026-08-20T11:19:50Z</time>
        <extensions>
          <geotracker:meta c="1.42" s="1.24" />
        </extensions>
      </trkpt>
      <trkpt lat="59.66687151" lon="10.77012372">
        <ele>129</ele>
        <time>2026-08-20T11:20:00Z</time>
        <extensions>
          <geotracker:meta c="1.48" s="1.25" />
        </extensions>
      </trkpt>
      <trkpt lat="59.66690651" lon="10.77031139">
        <ele>130</ele>
        <time>2026-08-20T11:20:08Z</time>
        <extensions>
          <geotracker:meta c="1.16" s="1.36" />
        </extensions>
      </trkpt>
      <trkpt lat="59.66694008" lon="10.77048414">
        <ele>132</ele>
        <time>2026-08-20T11:20:15Z</time>
        <extensions>
          <geotracker:meta c="1.26" s="1.3" />
        </extensions>
      </trkpt>
      <trkpt lat="59.66696543" lon="10.77066033">
        <ele>132</ele>
        <time>2026-08-20T11:20:24Z</time>
        <extensions>
          <geotracker:meta c="1.46" s="0.05" />
        </extensions>
      </trkpt>
      <trkpt lat="59.66700168" lon="10.7708325">
        <ele>132</ele>
        <time>2026-08-20T11:20:45Z</time>
        <extensions>
          <geotracker:meta c="1.36" s="1.26" />
        </extensions>
      </trkpt>
      <trkpt lat="59.66702687" lon="10.77102738">
        <ele>132</ele>
        <time>2026-08-20T11:20:53Z</time>
        <extensions>
          <geotracker:meta c="1.31" s="1.55" />
        </extensions>
      </trkpt>
      <trkpt lat="59.66704678" lon="10.77120046">
        <ele>131</ele>
        <time>2026-08-20T11:21:00Z</time>
        <extensions>
          <geotracker:meta c="1.41" s="1.3" />
        </extensions>
      </trkpt>
      <trkpt lat="59.66705629" lon="10.7713805">
        <ele>132</ele>
        <time>2026-08-20T11:21:08Z</time>
        <extensions>
          <geotracker:meta c="1.5" s="1.15" />
        </extensions>
      </trkpt>
      <trkpt lat="59.66706974" lon="10.7715577">
        <ele>134</ele>
        <time>2026-08-20T11:21:16Z</time>
        <extensions>
          <geotracker:meta c="1.33" s="1.56" />
        </extensions>
      </trkpt>
      <trkpt lat="59.66705415" lon="10.77174235">
        <ele>135</ele>
        <time>2026-08-20T11:21:24Z</time>
        <extensions>
          <geotracker:meta c="1.85" s="1.25" />
        </extensions>
      </trkpt>
      <trkpt lat="59.66702922" lon="10.77192784">
        <ele>135</ele>
        <time>2026-08-20T11:21:33Z</time>
        <extensions>
          <geotracker:meta c="1.92" s="1.2" />
        </extensions>
      </trkpt>
      <trkpt lat="59.66699322" lon="10.77209246">
        <ele>135</ele>
        <time>2026-08-20T11:21:40Z</time>
        <extensions>
          <geotracker:meta c="1.97" s="1.33" />
        </extensions>
      </trkpt>
      <trkpt lat="59.66695722" lon="10.77227636">
        <ele>135</ele>
        <time>2026-08-20T11:21:49Z</time>
        <extensions>
          <geotracker:meta c="1.9" s="1.29" />
        </extensions>
      </trkpt>
      <trkpt lat="59.6669283" lon="10.77245305">
        <ele>136</ele>
        <time>2026-08-20T11:21:58Z</time>
        <extensions>
          <geotracker:meta c="1.72" s="0.56" />
        </extensions>
      </trkpt>
      <trkpt lat="59.6668348" lon="10.77254098">
        <ele>134</ele>
        <time>2026-08-20T11:22:15Z</time>
        <extensions>
          <geotracker:meta c="2.78" s="1.62" />
        </extensions>
      </trkpt>
      <trkpt lat="59.66674608" lon="10.77262455">
        <ele>135</ele>
        <time>2026-08-20T11:22:21Z</time>
        <extensions>
          <geotracker:meta c="2.73" s="1.79" />
        </extensions>
      </trkpt>
      <trkpt lat="59.66665191" lon="10.77265472">
        <ele>134</ele>
        <time>2026-08-20T11:22:28Z</time>
        <extensions>
          <geotracker:meta c="2.99" s="1.43" />
        </extensions>
      </trkpt>
      <trkpt lat="59.66654885" lon="10.77267299">
        <ele>133</ele>
        <time>2026-08-20T11:22:33Z</time>
        <extensions>
          <geotracker:meta c="3.06" s="3" />
        </extensions>
      </trkpt>
      <trkpt lat="59.66640858" lon="10.77268875">
        <ele>132</ele>
        <time>2026-08-20T11:22:38Z</time>
        <extensions>
          <geotracker:meta c="3.11" s="3.05" />
        </extensions>
      </trkpt>
      <trkpt lat="59.66631353" lon="10.77270862">
        <ele>132</ele>
        <time>2026-08-20T11:22:42Z</time>
        <extensions>
          <geotracker:meta c="3.13" s="2.1" />
        </extensions>
      </trkpt>
      <trkpt lat="59.66622363" lon="10.77274097">
        <ele>133</ele>
        <time>2026-08-20T11:22:48Z</time>
        <extensions>
          <geotracker:meta c="3.04" s="1.59" />
        </extensions>
      </trkpt>
      <trkpt lat="59.66612707" lon="10.77276235">
        <ele>134</ele>
        <time>2026-08-20T11:22:55Z</time>
        <extensions>
          <geotracker:meta c="3.25" s="1.2" />
        </extensions>
      </trkpt>
      <trkpt lat="59.66603647" lon="10.77277676">
        <ele>134</ele>
        <time>2026-08-20T11:23:02Z</time>
        <extensions>
          <geotracker:meta c="3.19" s="1.49" />
        </extensions>
      </trkpt>
      <trkpt lat="59.66593571" lon="10.77278296">
        <ele>135</ele>
        <time>2026-08-20T11:23:09Z</time>
        <extensions>
          <geotracker:meta c="3.18" s="1.32" />
        </extensions>
      </trkpt>
      <trkpt lat="59.66584406" lon="10.77277626">
        <ele>136</ele>
        <time>2026-08-20T11:23:34Z</time>
        <extensions>
          <geotracker:meta c="3.38" s="0.36" />
        </extensions>
      </trkpt>
      <trkpt lat="59.6657589" lon="10.77284331">
        <ele>136</ele>
        <time>2026-08-20T11:23:46Z</time>
        <extensions>
          <geotracker:meta c="2.53" s="0.84" />
        </extensions>
      </trkpt>
      <trkpt lat="59.66568933" lon="10.77297525">
        <ele>136</ele>
        <time>2026-08-20T11:23:56Z</time>
        <extensions>
          <geotracker:meta c="2.25" s="1.43" />
        </extensions>
      </trkpt>
      <trkpt lat="59.66563715" lon="10.77313635">
        <ele>134</ele>
        <time>2026-08-20T11:24:05Z</time>
        <extensions>
          <geotracker:meta c="2.55" s="0.73" />
        </extensions>
      </trkpt>
      <trkpt lat="59.6655662" lon="10.77327993">
        <ele>133</ele>
        <time>2026-08-20T11:24:16Z</time>
        <extensions>
          <geotracker:meta c="2.3" s="1.17" />
        </extensions>
      </trkpt>
      <trkpt lat="59.66550853" lon="10.77343189">
        <ele>133</ele>
        <time>2026-08-20T11:24:23Z</time>
        <extensions>
          <geotracker:meta c="2.11" s="1.38" />
        </extensions>
      </trkpt>
      <trkpt lat="59.66545832" lon="10.77359215">
        <ele>135</ele>
        <time>2026-08-20T11:24:30Z</time>
        <extensions>
          <geotracker:meta c="2.09" s="1.33" />
        </extensions>
      </trkpt>
      <trkpt lat="59.66539626" lon="10.77372719">
        <ele>135</ele>
        <time>2026-08-20T11:24:37Z</time>
        <extensions>
          <geotracker:meta c="2.39" s="1.17" />
        </extensions>
      </trkpt>
      <trkpt lat="59.66531612" lon="10.77381805">
        <ele>135</ele>
        <time>2026-08-20T11:24:54Z</time>
        <extensions>
          <geotracker:meta c="3.01" s="0.6" />
        </extensions>
      </trkpt>
      <trkpt lat="59.66522468" lon="10.7737908">
        <ele>134</ele>
        <time>2026-08-20T11:25:01Z</time>
        <extensions>
          <geotracker:meta c="3.3" s="1.23" />
        </extensions>
      </trkpt>
      <trkpt lat="59.66512858" lon="10.77377169">
        <ele>133</ele>
        <time>2026-08-20T11:25:09Z</time>
        <extensions>
          <geotracker:meta c="3.2" s="1" />
        </extensions>
      </trkpt>
      <trkpt lat="59.6650321" lon="10.77377387">
        <ele>132</ele>
        <time>2026-08-20T11:25:17Z</time>
        <extensions>
          <geotracker:meta c="3.24" s="1.13" />
        </extensions>
      </trkpt>
      <trkpt lat="59.66505603" lon="10.77395576">
        <ele>133</ele>
        <time>2026-08-20T11:25:34Z</time>
        <extensions>
          <geotracker:meta c="1.04" s="1.29" />
        </extensions>
      </trkpt>
      <trkpt lat="59.66510846" lon="10.77411342">
        <ele>135</ele>
        <time>2026-08-20T11:25:42Z</time>
        <extensions>
          <geotracker:meta c="0.94" s="1.05" />
        </extensions>
      </trkpt>
      <trkpt lat="59.66516969" lon="10.77425592">
        <ele>135</ele>
        <time>2026-08-20T11:25:51Z</time>
        <extensions>
          <geotracker:meta c="0.99" s="1.19" />
        </extensions>
      </trkpt>
      <trkpt lat="59.66521764" lon="10.7744119">
        <ele>135</ele>
        <time>2026-08-20T11:25:59Z</time>
        <extensions>
          <geotracker:meta c="1.09" s="1.29" />
        </extensions>
      </trkpt>
      <trkpt lat="59.66528528" lon="10.77456085">
        <ele>136</ele>
        <time>2026-08-20T11:26:07Z</time>
        <extensions>
          <geotracker:meta c="0.84" s="1.39" />
        </extensions>
      </trkpt>
      <trkpt lat="59.66535246" lon="10.7747108">
        <ele>135</ele>
        <time>2026-08-20T11:26:16Z</time>
        <extensions>
          <geotracker:meta c="0.88" s="1.14" />
        </extensions>
      </trkpt>
      <trkpt lat="59.66541327" lon="10.77486545">
        <ele>136</ele>
        <time>2026-08-20T11:26:25Z</time>
        <extensions>
          <geotracker:meta c="0.71" s="1.21" />
        </extensions>
      </trkpt>
      <trkpt lat="59.66548234" lon="10.77500551">
        <ele>136</ele>
        <time>2026-08-20T11:26:34Z</time>
        <extensions>
          <geotracker:meta c="0.79" s="1.12" />
        </extensions>
      </trkpt>
      <trkpt lat="59.66555572" lon="10.77514063">
        <ele>136</ele>
        <time>2026-08-20T11:26:43Z</time>
        <extensions>
          <geotracker:meta c="0.83" s="1.28" />
        </extensions>
      </trkpt>
      <trkpt lat="59.66561829" lon="10.77528848">
        <ele>137</ele>
        <time>2026-08-20T11:26:52Z</time>
        <extensions>
          <geotracker:meta c="0.75" s="1.32" />
        </extensions>
      </trkpt>
      <trkpt lat="59.66569562" lon="10.7754127">
        <ele>137</ele>
        <time>2026-08-20T11:27:00Z</time>
        <extensions>
          <geotracker:meta c="0.7" s="1.35" />
        </extensions>
      </trkpt>
      <trkpt lat="59.66576372" lon="10.77554329">
        <ele>137</ele>
        <time>2026-08-20T11:27:08Z</time>
        <extensions>
          <geotracker:meta c="0.87" s="1.3" />
        </extensions>
      </trkpt>
      <trkpt lat="59.66583211" lon="10.77567489">
        <ele>137</ele>
        <time>2026-08-20T11:27:16Z</time>
        <extensions>
          <geotracker:meta c="0.78" s="1.1" />
        </extensions>
      </trkpt>
      <trkpt lat="59.66589691" lon="10.77580338">
        <ele>136</ele>
        <time>2026-08-20T11:27:24Z</time>
        <extensions>
          <geotracker:meta c="0.85" s="1.12" />
        </extensions>
      </trkpt>
      <trkpt lat="59.66597042" lon="10.7759385">
        <ele>137</ele>
        <time>2026-08-20T11:27:34Z</time>
        <extensions>
          <geotracker:meta c="1.06" s="1.14" />
        </extensions>
      </trkpt>
      <trkpt lat="59.66598844" lon="10.77612936">
        <ele>137</ele>
        <time>2026-08-20T11:27:42Z</time>
        <extensions>
          <geotracker:meta c="1.61" s="1.34" />
        </extensions>
      </trkpt>
      <trkpt lat="59.66599757" lon="10.77631309">
        <ele>136</ele>
        <time>2026-08-20T11:27:50Z</time>
        <extensions>
          <geotracker:meta c="1.63" s="1.31" />
        </extensions>
      </trkpt>
      <trkpt lat="59.66600675" lon="10.77649699">
        <ele>137</ele>
        <time>2026-08-20T11:27:57Z</time>
        <extensions>
          <geotracker:meta c="1.6" s="1.17" />
        </extensions>
      </trkpt>
      <trkpt lat="59.66602641" lon="10.77667988">
        <ele>136</ele>
        <time>2026-08-20T11:28:08Z</time>
        <extensions>
          <geotracker:meta c="1.13" s="0.66" />
        </extensions>
      </trkpt>
      <trkpt lat="59.66607473" lon="10.77683226">
        <ele>136</ele>
        <time>2026-08-20T11:28:17Z</time>
        <extensions>
          <geotracker:meta c="1.12" s="1.41" />
        </extensions>
      </trkpt>
      <trkpt lat="59.66613001" lon="10.7769818">
        <ele>135</ele>
        <time>2026-08-20T11:28:24Z</time>
        <extensions>
          <geotracker:meta c="1.06" s="1.14" />
        </extensions>
      </trkpt>
    </trkseg>
  </trk>
</gpx>