<?xml version="1.0"?>
<gpx
 version="1.1"
 creator="GPS Tracks - https://www.dmsoftwaresolutions.com"
 xmlns:xsi="http://www.w3.org/2001/XMLSchema-instance"
 xmlns="http://www.topografix.com/GPX/1/1"
 xsi:schemaLocation="http://www.topografix.com/GPX/1/1 http://www.topografix.com/GPX/1/1/gpx.xsd">
  <metadata>
    <name>Imrt100</name>
    <link href="https://www.dmsoftwaresolutions.com">
      <text>GPS Tracks</text>
    </link>
    <time>2026-08-20T11:00:17Z</time>
  </metadata>
  <wpt lat="59.66609916191012" lon="10.777104255376473">
    <ele>100.8949280558154</ele>
    <time>2026-08-20T11:00:16Z</time>
    <name>Start</name>
    <cmt></cmt>
  </wpt>
  <wpt lat="59.66618817233448" lon="10.777133834929145">
    <ele>100.75557693373412</ele>
    <time>2026-08-20T11:34:56Z</time>
    <name>End</name>
    <cmt></cmt>
  </wpt>
  <trk>
    <name>Imrt100</name>
    <trkseg>
      <trkpt lat="59.66609916191012" lon="10.777104255376473">
      <ele>100.8949280558154</ele>
      <time>2026-08-20T11:00:16Z</time>
      </trkpt>
      <trkpt lat="59.666090763425586" lon="10.777105284059592">
      <ele>100.09713752754033</ele>
      <time>2026-08-20T11:00:18Z</time>
      </trkpt>
      <trkpt lat="59.666739034761804" lon="10.776561498099616">
      <ele>100.1234137310039</ele>
      <time>2026-08-20T11:00:42Z</time>
      </trkpt>
      <trkpt lat="59.66652562976759" lon="10.77670250595771">
      <ele>101.16828450909003</ele>
      <time>2026-08-20T11:00:43Z</time>
      </trkpt>
      <trkpt lat="59.66666971168129" lon="10.77660730422887">
      <ele>101.1689293883139</ele>
      <time>2026-08-20T11:00:55Z</time>
      </trkpt>
      <trkpt lat="59.66649099978248" lon="10.776770667757958">
      <ele>101.53315618537633</ele>
      <time>2026-08-20T11:01:00Z</time>
      </trkpt>
      <trkpt lat="59.666721644843214" lon="10.776583354341176">
      <ele>101.20597372401676</ele>
      <time>2026-08-20T11:01:03Z</time>
      </trkpt>
      <trkpt lat="59.666774381458865" lon="10.776427895053345">
      <ele>100.38024133828532</ele>
      <time>2026-08-20T11:01:23Z</time>
      </trkpt>
      <trkpt lat="59.666630893264966" lon="10.776459866242783">
      <ele>98.88409449068173</ele>
      <time>2026-08-20T11:01:31Z</time>
      </trkpt>
      <trkpt lat="59.66598726939447" lon="10.776718395960197">
      <ele>96.92233276367188</ele>
      <time>2026-08-20T11:01:32Z</time>
      </trkpt>
      <trkpt lat="59.66591941244831" lon="10.776571230396115">
      <ele>99.4232646562159</ele>
      <time>2026-08-20T11:02:01Z</time>
      </trkpt>
      <trkpt lat="59.66591047596474" lon="10.776387192080737">
      <ele>99.01239239703864</ele>
      <time>2026-08-20T11:02:10Z</time>
      </trkpt>
      <trkpt lat="59.6658706316094" lon="10.776220599501094">
      <ele>100.23080254346132</ele>
      <time>2026-08-20T11:02:21Z</time>
      </trkpt>
      <trkpt lat="59.66588980836164" lon="10.776031700754093">
      <ele>99.62719531636685</ele>
      <time>2026-08-20T11:02:29Z</time>
      </trkpt>
      <trkpt lat="59.66590868356324" lon="10.775856616971097">
      <ele>100.14245485235006</ele>
      <time>2026-08-20T11:02:36Z</time>
      </trkpt>
      <trkpt lat="59.66583877670233" lon="10.775738320797124">
      <ele>98.95578023511916</ele>
      <time>2026-08-20T11:03:21Z</time>
      </trkpt>
      <trkpt lat="59.665767556079764" lon="10.775628163569113">
      <ele>98.91111826431006</ele>
      <time>2026-08-20T11:03:29Z</time>
      </trkpt>
      <trkpt lat="59.665699534955465" lon="10.77548007612515">
      <ele>98.87113235704601</ele>
      <time>2026-08-20T11:03:37Z</time>
      </trkpt>
      <trkpt lat="59.66563271041556" lon="10.775323299869758">
      <ele>98.57488416973501</ele>
      <time>2026-08-20T11:03:46Z</time>
      </trkpt>
      <trkpt lat="59.66556022904919" lon="10.775195836800085">
      <ele>97.91347015276551</ele>
      <time>2026-08-20T11:03:54Z</time>
      </trkpt>
      <trkpt lat="59.66549335308791" lon="10.775047103910605">
      <ele>98.24366160761565</ele>
      <time>2026-08-20T11:04:02Z</time>
      </trkpt>
      <trkpt lat="59.66542128515387" lon="10.774917202261605">
      <ele>97.97989336308092</ele>
      <time>2026-08-20T11:04:10Z</time>
      </trkpt>
      <trkpt lat="59.66535404605948" lon="10.774778104019752">
      <ele>98.01905264426023</ele>
      <time>2026-08-20T11:04:17Z</time>
      </trkpt>
      <trkpt lat="59.66528868949932" lon="10.774642199676657">
      <ele>97.05695146787912</ele>
      <time>2026-08-20T11:04:24Z</time>
      </trkpt>
      <trkpt lat="59.6652140378711" lon="10.774526315760793">
      <ele>97.08567519579083</ele>
      <time>2026-08-20T11:04:31Z</time>
      </trkpt>
      <trkpt lat="59.66516592349364" lon="10.774360208297784">
      <ele>96.43403154239058</ele>
      <time>2026-08-20T11:04:38Z</time>
      </trkpt>
      <trkpt lat="59.66511402996756" lon="10.774191669501114">
      <ele>96.18663873430341</ele>
      <time>2026-08-20T11:04:46Z</time>
      </trkpt>
      <trkpt lat="59.66505876996913" lon="10.774033111805522">
      <ele>96.5430370233953</ele>
      <time>2026-08-20T11:04:53Z</time>
      </trkpt>
      <trkpt lat="59.66499940794993" lon="10.773897006562486">
      <ele>95.62242996320128</ele>
      <time>2026-08-20T11:05:00Z</time>
      </trkpt>
      <trkpt lat="59.66507886942557" lon="10.773768926806664">
      <ele>96.87748909834772</ele>
      <time>2026-08-20T11:05:15Z</time>
      </trkpt>
      <trkpt lat="59.66516940264485" lon="10.773775676275573">
      <ele>97.27139071375132</ele>
      <time>2026-08-20T11:05:22Z</time>
      </trkpt>
      <trkpt lat="59.66526734913183" lon="10.77375562276357">
      <ele>97.66319577489048</ele>
      <time>2026-08-20T11:05:30Z</time>
      </trkpt>
      <trkpt lat="59.665352684284095" lon="10.77369660906158">
      <ele>97.84134874586016</ele>
      <time>2026-08-20T11:05:51Z</time>
      </trkpt>
      <trkpt lat="59.66541082683376" lon="10.773547763622032">
      <ele>97.785993588157</ele>
      <time>2026-08-20T11:05:59Z</time>
      </trkpt>
      <trkpt lat="59.66545587604167" lon="10.773373676946353">
      <ele>96.45997245050967</ele>
      <time>2026-08-20T11:06:07Z</time>
      </trkpt>
      <trkpt lat="59.66553088368277" lon="10.773261546861084">
      <ele>96.30060531198978</ele>
      <time>2026-08-20T11:06:14Z</time>
      </trkpt>
      <trkpt lat="59.66560188231991" lon="10.773136353546285">
      <ele>96.57750967238098</ele>
      <time>2026-08-20T11:06:21Z</time>
      </trkpt>
      <trkpt lat="59.66566297108735" lon="10.773001644083331">
      <ele>97.17334961425513</ele>
      <time>2026-08-20T11:06:28Z</time>
      </trkpt>
      <trkpt lat="59.66571578063634" lon="10.772840994107014">
      <ele>96.35279207862914</ele>
      <time>2026-08-20T11:06:37Z</time>
      </trkpt>
      <trkpt lat="59.66580250957244" lon="10.77275929997348">
      <ele>95.59856875613332</ele>
      <time>2026-08-20T11:06:45Z</time>
      </trkpt>
      <trkpt lat="59.66590042229387" lon="10.772707625348756">
      <ele>96.77602028567344</ele>
      <time>2026-08-20T11:06:53Z</time>
      </trkpt>
      <trkpt lat="59.665999341512894" lon="10.772683604871538">
      <ele>97.86712190695107</ele>
      <time>2026-08-20T11:07:16Z</time>
      </trkpt>
      <trkpt lat="59.66609038918398" lon="10.772691303418846">
      <ele>98.2375578628853</ele>
      <time>2026-08-20T11:07:24Z</time>
      </trkpt>
      <trkpt lat="59.6661872826155" lon="10.772685322634786">
      <ele>98.27109556738287</ele>
      <time>2026-08-20T11:07:32Z</time>
      </trkpt>
      <trkpt lat="59.66627804440106" lon="10.772680760503642">
      <ele>98.12612624187022</ele>
      <time>2026-08-20T11:07:39Z</time>
      </trkpt>
      <trkpt lat="59.66639025548983" lon="10.772658838829571">
      <ele>96.48934047110379</ele>
      <time>2026-08-20T11:07:45Z</time>
      </trkpt>
      <trkpt lat="59.666493799461534" lon="10.772624454471275">
      <ele>96.59873336460441</ele>
      <time>2026-08-20T11:07:50Z</time>
      </trkpt>
      <trkpt lat="59.66658379370941" lon="10.772601089740645">
      <ele>96.33882702793926</ele>
      <time>2026-08-20T11:07:54Z</time>
      </trkpt>
      <trkpt lat="59.66668242531593" lon="10.77255053031293">
      <ele>96.696019529365</ele>
      <time>2026-08-20T11:08:00Z</time>
      </trkpt>
      <trkpt lat="59.66677459964806" lon="10.77250508257705">
      <ele>97.31332352478057</ele>
      <time>2026-08-20T11:08:06Z</time>
      </trkpt>
      <trkpt lat="59.66686133036355" lon="10.772451488955005">
      <ele>97.13186116702855</ele>
      <time>2026-08-20T11:08:12Z</time>
      </trkpt>
      <trkpt lat="59.66692737524403" lon="10.772306903023146">
      <ele>96.39961968455464</ele>
      <time>2026-08-20T11:08:24Z</time>
      </trkpt>
      <trkpt lat="59.66695598461658" lon="10.772127857599324">
      <ele>96.03910147119313</ele>
      <time>2026-08-20T11:08:32Z</time>
      </trkpt>
      <trkpt lat="59.66699513746826" lon="10.771955614567302">
      <ele>96.04305868316442</ele>
      <time>2026-08-20T11:08:40Z</time>
      </trkpt>
      <trkpt lat="59.66702804283287" lon="10.771776409733695">
      <ele>96.08905274793506</ele>
      <time>2026-08-20T11:08:47Z</time>
      </trkpt>
      <trkpt lat="59.667047836514726" lon="10.771581779263563">
      <ele>95.72001460846514</ele>
      <time>2026-08-20T11:08:55Z</time>
      </trkpt>
      <trkpt lat="59.667032851999515" lon="10.771384985408089">
      <ele>95.68173207715154</ele>
      <time>2026-08-20T11:09:03Z</time>
      </trkpt>
      <trkpt lat="59.66701461480702" lon="10.771192720868623">
      <ele>93.57578860223293</ele>
      <time>2026-08-20T11:09:11Z</time>
      </trkpt>
      <trkpt lat="59.66699689955069" lon="10.771005146786628">
      <ele>93.4297404428944</ele>
      <time>2026-08-20T11:09:18Z</time>
      </trkpt>
      <trkpt lat="59.666970456239" lon="10.77082548159201">
      <ele>93.9658626401797</ele>
      <time>2026-08-20T11:09:25Z</time>
      </trkpt>
      <trkpt lat="59.66693891869034" lon="10.770652174544532">
      <ele>94.24172428343445</ele>
      <time>2026-08-20T11:09:35Z</time>
      </trkpt>
      <trkpt lat="59.66690209576016" lon="10.770484529616288">
      <ele>93.09004771150649</ele>
      <time>2026-08-20T11:09:42Z</time>
      </trkpt>
      <trkpt lat="59.6668643292971" lon="10.770311822516312">
      <ele>93.65246733557433</ele>
      <time>2026-08-20T11:09:49Z</time>
      </trkpt>
      <trkpt lat="59.666841605925605" lon="10.770138014813591">
      <ele>93.12988531030715</ele>
      <time>2026-08-20T11:09:56Z</time>
      </trkpt>
      <trkpt lat="59.666821347897496" lon="10.769962731053946">
      <ele>92.76371213700622</ele>
      <time>2026-08-20T11:10:03Z</time>
      </trkpt>
      <trkpt lat="59.66677902986275" lon="10.769798402252354">
      <ele>92.88346158433706</ele>
      <time>2026-08-20T11:10:10Z</time>
      </trkpt>
      <trkpt lat="59.666749736453696" lon="10.769596664163094">
      <ele>92.43606804870069</ele>
      <time>2026-08-20T11:10:17Z</time>
      </trkpt>
      <trkpt lat="59.66672761056232" lon="10.76940068480956">
      <ele>91.84371864702553</ele>
      <time>2026-08-20T11:10:25Z</time>
      </trkpt>
      <trkpt lat="59.66672038838404" lon="10.76920721743929">
      <ele>91.18206728529185</ele>
      <time>2026-08-20T11:10:34Z</time>
      </trkpt>
      <trkpt lat="59.666717044695" lon="10.769020578418028">
      <ele>91.56870739161968</ele>
      <time>2026-08-20T11:10:42Z</time>
      </trkpt>
      <trkpt lat="59.666697409942195" lon="10.768837639935004">
      <ele>90.84885842632502</ele>
      <time>2026-08-20T11:10:49Z</time>
      </trkpt>
      <trkpt lat="59.66666383799672" lon="10.768650141799581">
      <ele>91.52031050436199</ele>
      <time>2026-08-20T11:10:57Z</time>
      </trkpt>
      <trkpt lat="59.6666193712585" lon="10.76849509693049">
      <ele>91.9979265993461</ele>
      <time>2026-08-20T11:11:04Z</time>
      </trkpt>
      <trkpt lat="59.66658396072649" lon="10.768314214625907">
      <ele>91.77431380096823</ele>
      <time>2026-08-20T11:11:12Z</time>
      </trkpt>
      <trkpt lat="59.66654756019863" lon="10.768134547936251">
      <ele>90.47034569550306</ele>
      <time>2026-08-20T11:11:19Z</time>
      </trkpt>
      <trkpt lat="59.66654668579518" lon="10.76794248262441">
      <ele>89.75228304229677</ele>
      <time>2026-08-20T11:11:25Z</time>
      </trkpt>
      <trkpt lat="59.66658923033248" lon="10.767779098162462">
      <ele>88.16984857898206</ele>
      <time>2026-08-20T11:11:34Z</time>
      </trkpt>
      <trkpt lat="59.66654441238295" lon="10.767603021554425">
      <ele>88.44957894273102</ele>
      <time>2026-08-20T11:11:41Z</time>
      </trkpt>
      <trkpt lat="59.66648546371398" lon="10.767447379164235">
      <ele>88.95006382279098</ele>
      <time>2026-08-20T11:12:50Z</time>
      </trkpt>
      <trkpt lat="59.66646719345476" lon="10.767267477927279">
      <ele>87.38985473755747</ele>
      <time>2026-08-20T11:12:57Z</time>
      </trkpt>
      <trkpt lat="59.66643854953971" lon="10.76708995718561">
      <ele>86.16429937258363</ele>
      <time>2026-08-20T11:13:05Z</time>
      </trkpt>
      <trkpt lat="59.6664006061555" lon="10.76690031570627">
      <ele>86.14976391196251</ele>
      <time>2026-08-20T11:13:14Z</time>
      </trkpt>
      <trkpt lat="59.6664320523579" lon="10.766712864839711">
      <ele>86.43871399946511</ele>
      <time>2026-08-20T11:13:23Z</time>
      </trkpt>
      <trkpt lat="59.66650474104051" lon="10.766563597821962">
      <ele>86.55731352418661</ele>
      <time>2026-08-20T11:13:30Z</time>
      </trkpt>
      <trkpt lat="59.666512511684495" lon="10.766372130802631">
      <ele>87.08466868940741</ele>
      <time>2026-08-20T11:14:13Z</time>
      </trkpt>
      <trkpt lat="59.66646203687887" lon="10.766217443087202">
      <ele>87.18918734695762</ele>
      <time>2026-08-20T11:14:21Z</time>
      </trkpt>
      <trkpt lat="59.666425170317304" lon="10.766035309943197">
      <ele>87.53917399421334</ele>
      <time>2026-08-20T11:14:31Z</time>
      </trkpt>
      <trkpt lat="59.666388409577806" lon="10.765852550760748">
      <ele>88.29663139302284</ele>
      <time>2026-08-20T11:14:44Z</time>
      </trkpt>
      <trkpt lat="59.666368907554514" lon="10.765676455736227">
      <ele>87.52681016828865</ele>
      <time>2026-08-20T11:14:54Z</time>
      </trkpt>
      <trkpt lat="59.66632571686849" lon="10.765519255947305">
      <ele>88.09899473469704</ele>
      <time>2026-08-20T11:15:02Z</time>
      </trkpt>
      <trkpt lat="59.666294013546405" lon="10.765338956652885">
      <ele>88.0696372333914</ele>
      <time>2026-08-20T11:15:09Z</time>
      </trkpt>
      <trkpt lat="59.66626208219061" lon="10.765161858615837">
      <ele>85.87686982005835</ele>
      <time>2026-08-20T11:15:15Z</time>
      </trkpt>
      <trkpt lat="59.66624287423515" lon="10.76497122886634">
      <ele>85.20553365722299</ele>
      <time>2026-08-20T11:15:23Z</time>
      </trkpt>
      <trkpt lat="59.66623230839793" lon="10.764789392349805">
      <ele>85.91333647165447</ele>
      <time>2026-08-20T11:15:31Z</time>
      </trkpt>
      <trkpt lat="59.666258290056426" lon="10.764608096315872">
      <ele>88.51112690288574</ele>
      <time>2026-08-20T11:15:53Z</time>
      </trkpt>
      <trkpt lat="59.66634358715566" lon="10.764534697649443">
      <ele>89.69118515960872</ele>
      <time>2026-08-20T11:16:00Z</time>
      </trkpt>
      <trkpt lat="59.66642656236739" lon="10.764420707546114">
      <ele>90.85643720254302</ele>
      <time>2026-08-20T11:16:07Z</time>
      </trkpt>
      <trkpt lat="59.666504694113435" lon="10.764317099348043">
      <ele>92.417202164419</ele>
      <time>2026-08-20T11:16:14Z</time>
      </trkpt>
      <trkpt lat="59.666587552929386" lon="10.764216428570077">
      <ele>93.30894322879612</ele>
      <time>2026-08-20T11:16:21Z</time>
      </trkpt>
      <trkpt lat="59.66668481891965" lon="10.764164794495496">
      <ele>93.8650320796296</ele>
      <time>2026-08-20T11:16:28Z</time>
      </trkpt>
      <trkpt lat="59.66677885584546" lon="10.76411871295856">
      <ele>94.00658694375306</ele>
      <time>2026-08-20T11:16:35Z</time>
      </trkpt>
      <trkpt lat="59.66686986123009" lon="10.764083383772965">
      <ele>93.21230374556035</ele>
      <time>2026-08-20T11:16:43Z</time>
      </trkpt>
      <trkpt lat="59.666955849546305" lon="10.764023588815595">
      <ele>92.61355511192232</ele>
      <time>2026-08-20T11:16:53Z</time>
      </trkpt>
      <trkpt lat="59.66704689001172" lon="10.763947511029333">
      <ele>90.98053814284503</ele>
      <time>2026-08-20T11:17:05Z</time>
      </trkpt>
      <trkpt lat="59.667092666938686" lon="10.764105264583735">
      <ele>90.99675901699811</ele>
      <time>2026-08-20T11:18:11Z</time>
      </trkpt>
      <trkpt lat="59.667105229387715" lon="10.764295943384601">
      <ele>87.783890908584</ele>
      <time>2026-08-20T11:18:29Z</time>
      </trkpt>
      <trkpt lat="59.667098499224984" lon="10.764474589231291">
      <ele>86.46001407224685</ele>
      <time>2026-08-20T11:18:41Z</time>
      </trkpt>
      <trkpt lat="59.66697725007279" lon="10.764647321785581">
      <ele>87.85818481445312</ele>
      <time>2026-08-20T11:19:17Z</time>
      </trkpt>
      <trkpt lat="59.66700776257598" lon="10.76482296775329">
      <ele>86.70230102539062</ele>
      <time>2026-08-20T11:19:26Z</time>
      </trkpt>
      <trkpt lat="59.66702121120595" lon="10.765015753099698">
      <ele>85.09561175014824</ele>
      <time>2026-08-20T11:19:36Z</time>
      </trkpt>
      <trkpt lat="59.667026644609365" lon="10.765200904728143">
      <ele>84.62203995883465</ele>
      <time>2026-08-20T11:19:46Z</time>
      </trkpt>
      <trkpt lat="59.66706778536775" lon="10.765365668409784">
      <ele>83.2585733924061</ele>
      <time>2026-08-20T11:19:56Z</time>
      </trkpt>
      <trkpt lat="59.66707514934166" lon="10.765555195594118">
      <ele>83.15846383944154</ele>
      <time>2026-08-20T11:20:06Z</time>
      </trkpt>
      <trkpt lat="59.66708499949585" lon="10.765740817805325">
      <ele>83.64002525620162</ele>
      <time>2026-08-20T11:20:43Z</time>
      </trkpt>
      <trkpt lat="59.66704543385268" lon="10.765904561819758">
      <ele>84.75765359774232</ele>
      <time>2026-08-20T11:21:02Z</time>
      </trkpt>
      <trkpt lat="59.667027056359295" lon="10.766094448508644">
      <ele>84.03987520094961</ele>
      <time>2026-08-20T11:21:19Z</time>
      </trkpt>
      <trkpt lat="59.66701258181375" lon="10.766280533520378">
      <ele>84.17241862695664</ele>
      <time>2026-08-20T11:21:31Z</time>
      </trkpt>
      <trkpt lat="59.66698927905529" lon="10.766480974630387">
      <ele>85.65440768096596</ele>
      <time>2026-08-20T11:21:40Z</time>
      </trkpt>
      <trkpt lat="59.666951419775074" lon="10.766665424483788">
      <ele>86.23616547510028</ele>
      <time>2026-08-20T11:21:50Z</time>
      </trkpt>
      <trkpt lat="59.66702788463932" lon="10.76679300202788">
      <ele>86.6055793846026</ele>
      <time>2026-08-20T11:22:00Z</time>
      </trkpt>
      <trkpt lat="59.66710020846873" lon="10.766915408685321">
      <ele>86.46562523394823</ele>
      <time>2026-08-20T11:22:09Z</time>
      </trkpt>
      <trkpt lat="59.667164264184656" lon="10.76706838354461">
      <ele>86.56771398149431</ele>
      <time>2026-08-20T11:22:17Z</time>
      </trkpt>
      <trkpt lat="59.667231080045156" lon="10.767188327600802">
      <ele>86.49473111517727</ele>
      <time>2026-08-20T11:22:27Z</time>
      </trkpt>
      <trkpt lat="59.66730914296368" lon="10.76728368421813">
      <ele>85.92340551596135</ele>
      <time>2026-08-20T11:22:35Z</time>
      </trkpt>
      <trkpt lat="59.667385629108594" lon="10.767406572946687">
      <ele>86.43822682090104</ele>
      <time>2026-08-20T11:22:44Z</time>
      </trkpt>
      <trkpt lat="59.667456376533764" lon="10.767545483740628">
      <ele>86.63406516145915</ele>
      <time>2026-08-20T11:22:52Z</time>
      </trkpt>
      <trkpt lat="59.66752139542601" lon="10.767673041101636">
      <ele>86.51554077956825</ele>
      <time>2026-08-20T11:22:58Z</time>
      </trkpt>
      <trkpt lat="59.667601099637935" lon="10.767781726503916">
      <ele>87.161969486624</ele>
      <time>2026-08-20T11:23:06Z</time>
      </trkpt>
      <trkpt lat="59.667664755658535" lon="10.767925319051013">
      <ele>87.24574437830597</ele>
      <time>2026-08-20T11:23:15Z</time>
      </trkpt>
      <trkpt lat="59.6677352045959" lon="10.76805400902741">
      <ele>88.21211738139391</ele>
      <time>2026-08-20T11:23:23Z</time>
      </trkpt>
      <trkpt lat="59.66780355259429" lon="10.768174984271472">
      <ele>88.51097770780325</ele>
      <time>2026-08-20T11:23:32Z</time>
      </trkpt>
      <trkpt lat="59.66788311084442" lon="10.768263246105954">
      <ele>88.89239764679223</ele>
      <time>2026-08-20T11:23:41Z</time>
      </trkpt>
      <trkpt lat="59.66795409298371" lon="10.768386267088998">
      <ele>89.20846898201853</ele>
      <time>2026-08-20T11:23:49Z</time>
      </trkpt>
      <trkpt lat="59.66802514861602" lon="10.768514740074805">
      <ele>90.5609258422628</ele>
      <time>2026-08-20T11:23:58Z</time>
      </trkpt>
      <trkpt lat="59.6680960831761" lon="10.7686330832498">
      <ele>91.39227061811835</ele>
      <time>2026-08-20T11:24:06Z</time>
      </trkpt>
      <trkpt lat="59.66816291500263" lon="10.76877231149586">
      <ele>92.34883590321988</ele>
      <time>2026-08-20T11:24:15Z</time>
      </trkpt>
      <trkpt lat="59.668227165767" lon="10.768912016481025">
      <ele>93.56070014182478</ele>
      <time>2026-08-20T11:24:25Z</time>
      </trkpt>
      <trkpt lat="59.66829188496516" lon="10.769036322106356">
      <ele>95.09041842073202</ele>
      <time>2026-08-20T11:24:34Z</time>
      </trkpt>
      <trkpt lat="59.6683560457101" lon="10.769186275714866">
      <ele>97.5179116986692</ele>
      <time>2026-08-20T11:24:45Z</time>
      </trkpt>
      <trkpt lat="59.66841244209674" lon="10.769337083050852">
      <ele>98.11655787285417</ele>
      <time>2026-08-20T11:24:54Z</time>
      </trkpt>
      <trkpt lat="59.66847414083504" lon="10.769495407163255">
      <ele>99.55402040667832</ele>
      <time>2026-08-20T11:25:02Z</time>
      </trkpt>
      <trkpt lat="59.66853136773205" lon="10.769636118904073">
      <ele>100.68996756058186</ele>
      <time>2026-08-20T11:25:11Z</time>
      </trkpt>
      <trkpt lat="59.66857933588638" lon="10.769789231494713">
      <ele>101.14599186554551</ele>
      <time>2026-08-20T11:25:19Z</time>
      </trkpt>
      <trkpt lat="59.66863048142727" lon="10.769955124952752">
      <ele>102.34454122930765</ele>
      <time>2026-08-20T11:25:28Z</time>
      </trkpt>
      <trkpt lat="59.66866819599445" lon="10.770132139182053">
      <ele>102.63064415100962</ele>
      <time>2026-08-20T11:25:36Z</time>
      </trkpt>
      <trkpt lat="59.66869830530601" lon="10.770301445686917">
      <ele>103.62043821066618</ele>
      <time>2026-08-20T11:25:45Z</time>
      </trkpt>
      <trkpt lat="59.66873540796582" lon="10.770481311344051">
      <ele>103.84038747102022</ele>
      <time>2026-08-20T11:25:54Z</time>
      </trkpt>
      <trkpt lat="59.66876453933913" lon="10.770658961835192">
      <ele>104.32863756176084</ele>
      <time>2026-08-20T11:26:02Z</time>
      </trkpt>
      <trkpt lat="59.668785278279984" lon="10.770846694017164">
      <ele>104.38390555046499</ele>
      <time>2026-08-20T11:26:10Z</time>
      </trkpt>
      <trkpt lat="59.66882268814028" lon="10.771019232828026">
      <ele>105.61661341693252</ele>
      <time>2026-08-20T11:26:18Z</time>
      </trkpt>
      <trkpt lat="59.668869551272" lon="10.77119063065337">
      <ele>105.89224558044225</ele>
      <time>2026-08-20T11:26:27Z</time>
      </trkpt>
      <trkpt lat="59.66886579512458" lon="10.77137374093826">
      <ele>105.7907393751666</ele>
      <time>2026-08-20T11:26:43Z</time>
      </trkpt>
      <trkpt lat="59.668796560804374" lon="10.771503919872988">
      <ele>105.90442752465606</ele>
      <time>2026-08-20T11:26:52Z</time>
      </trkpt>
      <trkpt lat="59.66872541716043" lon="10.771631461816071">
      <ele>106.42290402110666</ele>
      <time>2026-08-20T11:27:00Z</time>
      </trkpt>
      <trkpt lat="59.66864761863316" lon="10.771736977988912">
      <ele>107.24362697079778</ele>
      <time>2026-08-20T11:27:07Z</time>
      </trkpt>
      <trkpt lat="59.668575382823" lon="10.771846739291403">
      <ele>107.31381285749376</ele>
      <time>2026-08-20T11:27:15Z</time>
      </trkpt>
      <trkpt lat="59.66849453845956" lon="10.771929038566956">
      <ele>107.52870823815465</ele>
      <time>2026-08-20T11:27:22Z</time>
      </trkpt>
      <trkpt lat="59.66840346062036" lon="10.772006560945183">
      <ele>106.9027496939525</ele>
      <time>2026-08-20T11:27:31Z</time>
      </trkpt>
      <trkpt lat="59.668318581358086" lon="10.772093832058678">
      <ele>107.51982386875898</ele>
      <time>2026-08-20T11:27:40Z</time>
      </trkpt>
      <trkpt lat="59.66822549069628" lon="10.772164273871786">
      <ele>106.36770395562053</ele>
      <time>2026-08-20T11:27:45Z</time>
      </trkpt>
      <trkpt lat="59.668126146686966" lon="10.772244394111704">
      <ele>105.79240731149912</ele>
      <time>2026-08-20T11:27:50Z</time>
      </trkpt>
      <trkpt lat="59.66803487013313" lon="10.77227958540371">
      <ele>107.25517169665545</ele>
      <time>2026-08-20T11:28:05Z</time>
      </trkpt>
      <trkpt lat="59.66793914238342" lon="10.772342055744128">
      <ele>107.11583832744509</ele>
      <time>2026-08-20T11:28:13Z</time>
      </trkpt>
      <trkpt lat="59.66784857107165" lon="10.772389402699828">
      <ele>106.5271063586697</ele>
      <time>2026-08-20T11:28:20Z</time>
      </trkpt>
      <trkpt lat="59.667762159219585" lon="10.772452547871636">
      <ele>105.2348089069128</ele>
      <time>2026-08-20T11:28:28Z</time>
      </trkpt>
      <trkpt lat="59.667675148750455" lon="10.77250763929702">
      <ele>105.01339344959706</ele>
      <time>2026-08-20T11:28:37Z</time>
      </trkpt>
      <trkpt lat="59.667592908268134" lon="10.772599918463015">
      <ele>104.55295660533011</ele>
      <time>2026-08-20T11:28:46Z</time>
      </trkpt>
      <trkpt lat="59.667560797393826" lon="10.772768528817563">
      <ele>103.87761208880693</ele>
      <time>2026-08-20T11:29:00Z</time>
      </trkpt>
      <trkpt lat="59.667570539597016" lon="10.772957983802792">
      <ele>103.869712729007</ele>
      <time>2026-08-20T11:29:08Z</time>
      </trkpt>
      <trkpt lat="59.66756767808309" lon="10.77315466177178">
      <ele>104.67337726987898</ele>
      <time>2026-08-20T11:29:17Z</time>
      </trkpt>
      <trkpt lat="59.667579818381896" lon="10.773331916962873">
      <ele>105.68510950822383</ele>
      <time>2026-08-20T11:29:25Z</time>
      </trkpt>
      <trkpt lat="59.66759867315259" lon="10.773541450642565">
      <ele>105.95446786656976</ele>
      <time>2026-08-20T11:29:37Z</time>
      </trkpt>
      <trkpt lat="59.66758809896695" lon="10.773728068193568">
      <ele>105.31192694790661</ele>
      <time>2026-08-20T11:29:45Z</time>
      </trkpt>
      <trkpt lat="59.66758564098642" lon="10.773915867792727">
      <ele>105.68450543750077</ele>
      <time>2026-08-20T11:29:54Z</time>
      </trkpt>
      <trkpt lat="59.6675838731533" lon="10.774102029522076">
      <ele>105.23085654526949</ele>
      <time>2026-08-20T11:30:02Z</time>
      </trkpt>
      <trkpt lat="59.66756646134121" lon="10.77428379594387">
      <ele>105.31278148945421</ele>
      <time>2026-08-20T11:30:10Z</time>
      </trkpt>
      <trkpt lat="59.667555606736904" lon="10.774484962372354">
      <ele>105.14515463914722</ele>
      <time>2026-08-20T11:30:18Z</time>
      </trkpt>
      <trkpt lat="59.66756026356773" lon="10.774674997752932">
      <ele>105.73783639911562</ele>
      <time>2026-08-20T11:30:27Z</time>
      </trkpt>
      <trkpt lat="59.667565812465256" lon="10.774864366859447">
      <ele>105.3299411535263</ele>
      <time>2026-08-20T11:30:35Z</time>
      </trkpt>
      <trkpt lat="59.66754911459276" lon="10.77504901455737">
      <ele>105.58058652468026</ele>
      <time>2026-08-20T11:30:43Z</time>
      </trkpt>
      <trkpt lat="59.66755724821298" lon="10.775227076414609">
      <ele>106.01326063089073</ele>
      <time>2026-08-20T11:30:58Z</time>
      </trkpt>
      <trkpt lat="59.66753866203081" lon="10.775407329166361">
      <ele>105.70934895705432</ele>
      <time>2026-08-20T11:31:06Z</time>
      </trkpt>
      <trkpt lat="59.66750471824725" lon="10.775590491915787">
      <ele>105.10480300150812</ele>
      <time>2026-08-20T11:31:14Z</time>
      </trkpt>
      <trkpt lat="59.66747466753157" lon="10.775786325151598">
      <ele>104.94966855831444</ele>
      <time>2026-08-20T11:31:23Z</time>
      </trkpt>
      <trkpt lat="59.66745374605271" lon="10.775961704341231">
      <ele>104.42210625205189</ele>
      <time>2026-08-20T11:31:33Z</time>
      </trkpt>
      <trkpt lat="59.667376645792004" lon="10.776063518169499">
      <ele>104.59094944037497</ele>
      <time>2026-08-20T11:32:05Z</time>
      </trkpt>
      <trkpt lat="59.66728300916936" lon="10.77605193392603">
      <ele>103.97278425190598</ele>
      <time>2026-08-20T11:32:14Z</time>
      </trkpt>
      <trkpt lat="59.66718449368561" lon="10.776052686620197">
      <ele>103.54505721200258</ele>
      <time>2026-08-20T11:32:27Z</time>
      </trkpt>
      <trkpt lat="59.667092610218226" lon="10.77613201318418">
      <ele>103.81521183438599</ele>
      <time>2026-08-20T11:32:35Z</time>
      </trkpt>
      <trkpt lat="59.66699619926718" lon="10.776156073497232">
      <ele>103.29962910711765</ele>
      <time>2026-08-20T11:32:42Z</time>
      </trkpt>
      <trkpt lat="59.66689180387817" lon="10.776144742697827">
      <ele>101.75202098023146</ele>
      <time>2026-08-20T11:32:57Z</time>
      </trkpt>
      <trkpt lat="59.666799776367995" lon="10.776176737475794">
      <ele>101.93744672369212</ele>
      <time>2026-08-20T11:33:03Z</time>
      </trkpt>
      <trkpt lat="59.6667082406969" lon="10.776209200493266">
      <ele>102.2025024490431</ele>
      <time>2026-08-20T11:33:09Z</time>
      </trkpt>
      <trkpt lat="59.66662557952652" lon="10.776133607648259">
      <ele>102.00635254848748</ele>
      <time>2026-08-20T11:33:24Z</time>
      </trkpt>
      <trkpt lat="59.66654793747062" lon="10.77603955798145">
      <ele>100.34372373577207</ele>
      <time>2026-08-20T11:33:47Z</time>
      </trkpt>
      <trkpt lat="59.66644575484302" lon="10.776025908750603">
      <ele>100.3387465281412</ele>
      <time>2026-08-20T11:33:55Z</time>
      </trkpt>
      <trkpt lat="59.6663685683285" lon="10.77616183683727">
      <ele>100.22502801846713</ele>
      <time>2026-08-20T11:34:07Z</time>
      </trkpt>
      <trkpt lat="59.66634266599135" lon="10.77635258618654">
      <ele>100.98937853891402</ele>
      <time>2026-08-20T11:34:15Z</time>
      </trkpt>
      <trkpt lat="59.666298542392546" lon="10.776537911517071">
      <ele>100.5663518467918</ele>
      <time>2026-08-20T11:34:23Z</time>
      </trkpt>
      <trkpt lat="59.6662499101926" lon="10.776709350412018">
      <ele>100.313252331689</ele>
      <time>2026-08-20T11:34:30Z</time>
      </trkpt>
      <trkpt lat="59.66620663361822" lon="10.776873164567098">
      <ele>100.72841579653323</ele>
      <time>2026-08-20T11:34:38Z</time>
      </trkpt>
      <trkpt lat="59.66619156162072" lon="10.777052400548854">
      <ele>100.11544700525701</ele>
      <time>2026-08-20T11:34:51Z</time>
      </trkpt>
      <trkpt lat="59.66618817233448" lon="10.777133834929145">
      <ele>100.75557693373412</ele>
      <time>2026-08-20T11:34:56Z</time>
      </trkpt>
    </trkseg>
  </trk>
</gpx>